NORAD_CAT_ID,OBJECT_NAME,OBJECT_TYPE,EPOCH,MEAN_MOTION,ECCENTRICITY,INCLINATION,RA_OF_ASC_NODE,ARG_OF_PERICENTER,MEAN_ANOMALY,BSTAR,MEAN_MOTION_DOT,MEAN_MOTION_DDOT,TLE_LINE0,TLE_LINE1,TLE_LINE2,SEMIMAJOR_AXIS,PERIOD,APOGEE,PERIGEE,DECAYED
52263.0,STARLINK-3786,PAYLOAD,2022-08-23 22:00:01,15.0885592,0.0002244,53.2158,157.0861,55.1575,316.673,-0.0016253,-0.00026074,0.0,0 STARLINK-3786,1 52263U 22041C   22235.91668981 -.00026074  00000-0 -16253-2 0  9999,2 52263  53.2158 157.0861 0002244  55.1575 316.6730 15.08855920  1305,6917.831999999999,95.437,541.249,538.144,0.0
52263.0,STARLINK-3786,PAYLOAD,2022-08-24 14:00:01,15.08830728,0.0002237,53.2162,154.0928,55.81800000000001,339.1593,0.0019931,0.00031567,0.0,0 STARLINK-3786,1 52263U 22041C   22236.58334491  .00031567  00000-0  19931-2 0  9996,2 52263  53.2162 154.0928 0002237  55.8180 339.1593 15.08830728 20365,6917.909000000002,95.438,541.321,538.226,0.0
52263.0,STARLINK-3786,PAYLOAD,2022-08-24 22:00:00,15.08844902,0.0002338,53.2169,152.5969,55.9088,350.6654,0.00275,0.00043757,0.0,0 STARLINK-3786,1 52263U 22041C   22236.91667824  .00043757  00000-0  27500-2 0  9997,2 52263  53.2169 152.5969 0002338  55.9088 350.6654 15.08844902  1308,6917.865,95.437,541.3480000000002,538.113,0.0
52263.0,STARLINK-3786,PAYLOAD,2022-08-25 14:00:01,15.08841264,0.0002247,53.2169,149.6037,56.5896,13.225,-0.00020419,-3.537e-05,0.0,0 STARLINK-3786,1 52263U 22041C   22237.58334491 -.00003537  00000-0 -20419-3 0  9999,2 52263  53.2169 149.6037 0002247  56.5896  13.2250 15.08841264  1306,6917.877,95.437,541.2959999999998,538.187,0.0
52263.0,STARLINK-3786,PAYLOAD,2022-08-25 22:00:00,15.08853562,0.0002334999999999,53.217,148.1083,55.9038,25.5015,-0.0018350999999999,-0.00029387,0.0,0 STARLINK-3786,1 52263U 22041C   22237.91667824 -.00029387  00000-0 -18351-2 0  9997,2 52263  53.2170 148.1083 0002335  55.9038  25.5015 15.08853562  1301,6917.839,95.437,541.319,538.089,0.0
52263.0,STARLINK-3786,PAYLOAD,2022-08-26 14:00:01,15.08823991,0.0002254,53.2171,145.1147,57.974,46.697,0.0025451999999999,0.00040434,0.0,0 STARLINK-3786,1 52263U 22041C   22238.58335648  .00040434  00000-0  25452-2 0  9991,2 52263  53.2171 145.1147 0002254  57.9740  46.6970 15.08823991 20669,6917.929,95.439,541.354,538.235,0.0
52263.0,STARLINK-3786,PAYLOAD,2022-08-26 22:00:00,15.08864977,0.0002365,53.2172,143.6195,57.5996,58.599,-0.0017406,-0.00027903,0.0,0 STARLINK-3786,1 52263U 22041C   22238.91667824 -.00027903  00000-0 -17406-2 0  9990,2 52263  53.2172 143.6195 0002365  57.5996  58.5990 15.08864977  1301,6917.804,95.436,541.305,538.033,0.0
52263.0,STARLINK-3786,PAYLOAD,2022-08-27 14:00:01,15.08810482,0.0002165,53.2169,140.6258,58.874,80.5555,0.0027093,0.0004306,0.0,0 STARLINK-3786,1 52263U 22041C   22239.58334491  .00043060  00000-0  27093-2 0  9998,2 52263  53.2169 140.6258 0002165  58.8740  80.5555 15.08810482  1307,6917.971,95.439,541.3330000000002,538.3380000000002,0.0
52263.0,STARLINK-3786,PAYLOAD,2022-08-27 22:00:00,15.08850324,0.0002281,53.2169,139.1306,58.2272,92.7789,-0.0015706,-0.00025205,0.0,0 STARLINK-3786,1 52263U 22041C   22239.91667824 -.00025205  00000-0 -15706-2 0  9995,2 52263  53.2169 139.1306 0002281  58.2272  92.7789 15.08850324 20862,6917.849,95.437,541.2919999999998,538.136,0.0
52263.0,STARLINK-3786,PAYLOAD,2022-08-28 14:00:01,15.08840312,0.0002156,53.2163,136.1368,61.1686,113.0441,0.00060583,9.367e-05,0.0,0 STARLINK-3786,1 52263U 22041C   22240.58334491  .00009367  00000-0  60583-3 0  9994,2 52263  53.2163 136.1368 0002156  61.1686 113.0441 15.08840312 20963,6917.879,95.438,541.236,538.253,0.0
52263.0,STARLINK-3786,PAYLOAD,2022-08-28 22:00:00,15.08838404,0.0002211999999999,53.2162,134.6417,58.9294,126.8857,-0.0014257,-0.00022906,0.0,0 STARLINK-3786,1 52263U 22041C   22240.91667824 -.00022906  00000-0 -14257-2 0  9992,2 52263  53.2162 134.6417 0002212  58.9294 126.8857 15.08838404  1301,6917.885,95.438,541.281,538.22,0.0
52263.0,STARLINK-3786,PAYLOAD,2022-08-29 06:00:02,15.08837295,0.0002237,53.2157,133.1456,55.9754,141.4789,-0.00096238,-0.00015571,0.0,0 STARLINK-3786,1 52263U 22041C   22241.25002315 -.00015571  00000-0 -96238-3 0  9998,2 52263  53.2157 133.1456 0002237  55.9754 141.4789 15.08837295 21066,6917.889,95.438,541.3009999999998,538.206,0.0
52263.0,STARLINK-3786,PAYLOAD,2022-08-29 14:00:01,15.08797554,0.000206,53.2155,131.6476,61.2015,147.7859,0.0016454,0.00025965,0.0,0 STARLINK-3786,1 52263U 22041C   22241.58334491  .00025965  00000-0  16454-2 0  9994,2 52263  53.2155 131.6476 0002060  61.2015 147.7859 15.08797554  1308,6918.01,95.44,541.3,538.45,0.0
52263.0,STARLINK-3786,PAYLOAD,2022-08-29 22:00:00,15.08820353,0.0002174999999999,53.2155,130.1527,58.6937,161.8497,-0.0010993,-0.00017732,0.0,0 STARLINK-3786,1 52263U 22041C   22241.91667824 -.00017732  00000-0 -10993-2 0  9997,2 52263  53.2155 130.1527 0002175  58.6937 161.8497 15.08820353  1308,6917.94,95.439,541.31,538.3009999999998,0.0
52263.0,STARLINK-3786,PAYLOAD,2022-08-30 14:00:01,15.08803245,0.0002119,53.215,127.1583,62.419,181.2657,0.002778,0.00044157,0.0,0 STARLINK-3786,1 52263U 22041C   22242.58334491  .00044157  00000-0  27780-2 0  9993,2 52263  53.2150 127.1583 0002119  62.4190 181.2657 15.08803245  1308,6917.993,95.44,541.3240000000002,538.3919999999998,0.0
52263.0,STARLINK-3786,PAYLOAD,2022-08-30 22:00:00,15.08835282,0.000226,53.215,125.6634,59.703,195.5534,-0.00085626,-0.00013889,0.0,0 STARLINK-3786,1 52263U 22041C   22242.91667824 -.00013889  00000-0 -85626-3 0  9993,2 52263  53.2150 125.6634 0002260  59.7030 195.5534 15.08835282  1305,6917.895,95.438,541.323,538.196,0.0
52263.0,STARLINK-3786,PAYLOAD,2022-08-31 14:00:01,15.08822271,0.0002205,53.2151,122.6688,63.5909,214.8493,0.0029181,0.00046438,0.0,0 STARLINK-3786,1 52263U 22041C   22243.58334491  .00046438  00000-0  29181-2 0  9995,2 52263  53.2151 122.6688 0002205  63.5909 214.8493 15.08822271  1302,6917.935,95.439,541.325,538.274,0.0
52263.0,STARLINK-3786,PAYLOAD,2022-08-31 22:00:00,15.0885367,0.0002349,53.2152,121.1739,60.3723,229.6634,-0.00066482,-0.00010858,0.0,0 STARLINK-3786,1 52263U 22041C   22243.91667824 -.00010858  00000-0 -66482-3 0  9996,2 52263  53.2152 121.1739 0002349  60.3723 229.6634 15.08853670 21469,6917.839,95.437,541.3290000000002,538.0790000000002,0.0
52263.0,STARLINK-3786,PAYLOAD,2022-09-01 14:00:01,15.08823284,0.0002198,53.2155,118.1792,63.9228,249.4028,0.0020854,0.00033042,0.0,0 STARLINK-3786,1 52263U 22041C   22244.58335648  .00033042  00000-0  20854-2 0  9996,2 52263  53.2155 118.1792 0002198  63.9228 249.4028 15.08823284  1304,6917.931,95.439,541.317,538.276,0.0
52263.0,STARLINK-3786,PAYLOAD,2022-09-01 22:00:00,15.08842828,0.0002333,53.2157,116.6844,59.9745,264.8771,-0.00067773,-0.0001105999999999,0.0,0 STARLINK-3786,1 52263U 22041C   22244.91667824 -.00011060  00000-0 -67773-3 0  9997,2 52263  53.2157 116.6844 0002333  59.9745 264.8771 15.08842828  1308,6917.871999999999,95.437,541.351,538.123,0.0
52263.0,STARLINK-3786,PAYLOAD,2022-09-02 06:00:00,15.08863992,0.0002262,53.2157,115.1877,58.8041,277.6356,-0.0024019,-0.00038338,0.0,0 STARLINK-3786,1 52263U 22041C   22245.25001157 -.00038338  00000-0 -24019-2 0  9998,2 52263  53.2157 115.1877 0002262  58.8041 277.6356 15.08863992 21663,6917.807,95.436,541.237,538.107,0.0
52263.0,STARLINK-3786,PAYLOAD,2022-09-02 14:00:01,15.08822755,0.0002150999999999,53.2162,113.6899,64.5729,283.4814,0.0009156,0.00014307,0.0,0 STARLINK-3786,1 52263U 22041C   22245.58334491  .00014307  00000-0  91560-3 0  9998,2 52263  53.2162 113.6899 0002151  64.5729 283.4814 15.08822755  1305,6917.933000000001,95.439,541.286,538.31,0.0
52263.0,STARLINK-3786,PAYLOAD,2022-09-02 22:00:01,15.08829927,0.0002262,53.2162,112.1952,59.8624,299.8366,-0.00065802,-0.00010743,0.0,0 STARLINK-3786,1 52263U 22041C   22245.91668981 -.00010743  00000-0 -65802-3 0  9991,2 52263  53.2162 112.1952 0002262  59.8624 299.8366 15.08829927  1304,6917.911,95.438,541.341,538.211,0.0
52263.0,STARLINK-3786,PAYLOAD,2022-09-03 06:00:00,15.08848367,0.0002204,53.2162,110.6983,59.6547,311.5568,-0.0019199999999999,-0.00030723,0.0,0 STARLINK-3786,1 52263U 22041C   22246.25001157 -.00030723  00000-0 -19200-2 0  9995,2 52263  53.2162 110.6983 0002204  59.6547 311.5568 15.08848367 21812,6917.855,95.437,541.245,538.195,0.0
52263.0,STARLINK-3786,PAYLOAD,2022-09-03 14:00:01,15.08825531,0.0002124,53.2166,109.2009,66.1032,316.7065,0.0024729,0.00039273,0.0,0 STARLINK-3786,1 52263U 22041C   22246.58334491  .00039273  00000-0  24729-2 0  9990,2 52263  53.2166 109.2009 0002124  66.1032 316.7065 15.08825531  1301,6917.925,95.438,541.259,538.32,0.0
52263.0,STARLINK-3786,PAYLOAD,2022-09-03 22:00:00,15.08848439,0.0002254,53.2166,107.7063,61.5076,332.8994,-0.0003373,-5.654e-05,0.0,0 STARLINK-3786,1 52263U 22041C   22246.91667824 -.00005654  00000-0 -33730-3 0  9997,2 52263  53.2166 107.7063 0002254  61.5076 332.8994 15.08848439 21927,6917.855,95.437,541.279,538.16,0.0
52263.0,STARLINK-3786,PAYLOAD,2022-09-04 14:00:01,15.08840062,0.0002020999999999,53.2167,104.7118,67.5617,350.135,0.000784,0.00012211,0.0,0 STARLINK-3786,1 52263U 22041C   22247.58335648  .00012211  00000-0  78400-3 0  9995,2 52263  53.2167 104.7118 0002021  67.5617 350.1350 15.08840062  1308,6917.88,95.438,541.143,538.347,0.0
52263.0,STARLINK-3786,PAYLOAD,2022-09-04 20:00:01,15.08857066,0.0002051,53.2166,103.5911,62.5849,273.751,-0.0015834,-0.00025412,0.0,0 STARLINK-3786,1 52263U 22041C   22247.83334491 -.00025412  00000-0 -15834-2 0  9998,2 52263  53.2166 103.5911 0002051  62.5849 273.7510 15.08857066 22055,6917.828,95.436,541.112,538.274,0.0
52263.0,STARLINK-3786,PAYLOAD,2022-09-05 14:00:01,15.08838943,0.000188,53.2164,100.223,67.1956,25.2417,0.00096624,0.00015123,0.0,0 STARLINK-3786,1 52263U 22041C   22248.58334491  .00015123  00000-0  96624-3 0  9994,2 52263  53.2164 100.2230 0001880  67.1956  25.2417 15.08838943 22172,6917.884,95.438,541.049,538.448,0.0
